0 COSMOS 970 DEB
1 10884U 77121AF  13280.51913682  .00000142  00000-0  19433-3 0  9808
2 10884 066.3879 096.9972 0201712 193.5942 198.6695 13.76087611794071
0 COSMOS 970 DEB
1 10884U 77121AF  13282.85925782  .00000205  00000-0  24992-3 0  9818
2 10884 066.3881 091.3256 0201521 192.2122 271.4071 13.76089116794397
0 COSMOS 970 DEB
1 10884U 77121AF  13287.51163017  .00000222  00000-0  26459-3 0  9832
2 10884 066.3890 080.0501 0201114 189.4482 278.8705 13.76092510795039
0 COSMOS 970 DEB
1 10884U 77121AF  13289.83955365  .00000317  00000-0  34943-3 0  9847
2 10884 066.3895 074.4087 0200930 188.0703 291.2289 13.76094704795354
0 COSMOS 970 DEB
1 10884U 77121AF  13292.15270394  .00000369  00000-0  39544-3 0  9858
2 10884 066.3898 068.8032 0200724 186.6993 230.4208 13.76096244795672
0 COSMOS 970 DEB
1 10884U 77121AF  13294.49298778  .00000376  00000-0  40204-3 0  9867
2 10884 066.3901 063.1319 0200521 185.2975 304.0599 13.76099041795997
